CUPID                   
1 49264U 21088E   26068.66993977  .00009454  00000+0  38662-3 0  9991
2 49264  97.3985 131.0756 0013746  59.9938 300.2662 15.24473777245013
STARLINK-33759          
1 64007U 25101P   26068.13926538  .00039010  00000+0  14196-2 0  9990
2 64007  43.0030   0.8461 0001928 252.9816 107.0825 15.27581600 46975
